ONEWEB-0534             
1 55797U 23029B   26162.85092568 -.00000063  00000+0 -18615-3 0  9993
2 55797  87.9181 275.5333 0001841  99.6857 260.4485 13.20771449160447
ONEWEB-0556             
1 55798U 23029C   26162.78190829 -.00000048  00000+0 -15051-3 0  9999
2 55798  87.9179 275.5468 0001789  74.0430 286.0901 13.20773315160439
ONEWEB-0562             
1 55799U 23029D   26162.76843001 -.00000026  00000+0 -96259-4 0  9991
2 55799  87.9181 275.5303 0002443  81.6042 278.5369 13.20770633160436
ONEWEB-0563             
1 55800U 23029E   26162.68763424 -.00000004  00000+0 -42856-4 0  9995
2 55800  87.9181 275.5769 0001725 101.0442 259.0885 13.20772143160411
ONEWEB-0564             
1 55801U 23029F   26162.75665575 -.00000052  00000+0 -16034-3 0  9993
2 55801  87.9182 275.5364 0002216  91.8951 268.2436 13.20770670160430
ONEWEB-0638             
1 55802U 23029G   26162.91261046 -.00001955  00000+0 -53088-2 0  9999
2 55802  87.8947 290.8037 0001478  87.6973 272.4326 13.14486937158707
ONEWEB-0639             
1 55803U 23029H   26162.95219309 -.00000029  00000+0 -10598-3 0  9990
2 55803  87.9164 306.0190 0001052 121.9852 238.1383 13.19725166158219
ONEWEB-0640             
1 55804U 23029J   26162.84598460 -.00000208  00000+0 -59616-3 0  9990
2 55804  87.8950 290.8080 0001503  79.6356 280.4943 13.14502849158712
ONEWEB-0641             
1 55805U 23029K   26162.94744535 -.00000039  00000+0 -13071-3 0  9995
2 55805  87.9172 306.0087 0001710 101.5552 258.5773 13.19724642158225
ONEWEB-0642             
1 55806U 23029L   26162.94271270  .00000005  00000+0 -19896-4 0  9991
2 55806  87.9165 306.0219 0001348 123.4843 236.6418 13.19724339158213
ONEWEB-0643             
1 55807U 23029M   26162.81586494  .00000133  00000+0  32470-3 0  9998
2 55807  87.8951 290.8010 0001694 121.6439 238.4857 13.14502640158682
ONEWEB-0644             
1 55808U 23029N   26162.93796747 -.00000061  00000+0 -18425-3 0  9992
2 55808  87.9163 306.0243 0001619 107.6356 252.4953 13.19724024158215
ONEWEB-0645             
1 55809U 23029P   26162.96007941  .00000021  00000+0  19259-4 0  9998
2 55809  87.9162 306.0170 0001379  94.7958 265.3332 13.19723961158214
ONEWEB-0646             
1 55810U 23029Q   26162.90165097  .00000022  00000+0  22861-4 0  9995
2 55810  87.9164 306.0288 0001669 105.9463 254.1854 13.19724657158191
ONEWEB-0648             
1 55811U 23029R   26162.86024016 -.00000284  00000+0 -79994-3 0  9996
2 55811  87.8961 290.7652 0000983 109.7650 250.3586 13.14502939158695
ONEWEB-0649             
1 55812U 23029S   26162.92691188 -.00000020  00000+0 -83326-4 0  9997
2 55812  87.9161 306.0213 0001568  98.1293 262.0018 13.19724681158232
ONEWEB-0650             
1 55813U 23029T   26162.92216183 -.00000060  00000+0 -18294-3 0  9991
2 55813  87.9165 306.0249 0001407 112.1751 247.9531 13.19724546158203
ONEWEB-0652             
1 55814U 23029U   26162.91733300 -.00000213  00000+0 -60926-3 0  9995
2 55814  87.8957 290.7613 0002051  99.3360 260.8002 13.14504537158673
ONEWEB-0653             
1 55815U 23029V   26162.90148425 -.00000097  00000+0 -29603-3 0  9990
2 55815  87.8962 290.7621 0001881  97.2026 262.9317 13.14502514158704
ONEWEB-0654             
1 55816U 23029W   26162.82061180  .00000078  00000+0  17592-3 0  9995
2 55816  87.8959 290.7745 0002166  93.4457 266.6921 13.14503404158713
ONEWEB-0656             
1 55817U 23029X   26162.74992294 -.00000013  00000+0 -63083-4 0  9994
2 55817  87.9196 275.5131 0002332  94.1897 265.9503 13.20772935160433
ONEWEB-0657             
1 55818U 23029Y   26162.91744305 -.00000041  00000+0 -13528-3 0  9991
2 55818  87.9165 306.0246 0002460 105.7898 254.3506 13.19724436158218
ONEWEB-0658             
1 55819U 23029Z   26162.91270213 -.00000037  00000+0 -12535-3 0  9996
2 55819  87.9172 306.0006 0001572 109.1804 250.9500 13.19724445158226
ONEWEB-0660             
1 55820U 23029AA  26162.72229383  .00000240  00000+0  61273-3 0  9996
2 55820  87.8968 290.7869 0001598  95.1101 265.0211 13.14503280158681
ONEWEB-0661             
1 55821U 23029AB  26162.90942150 -.00000144  00000+0 -42325-3 0  9993
2 55821  87.8952 290.7951 0001670  91.9549 268.1772 13.14502077158698
ONEWEB-0662             
1 55822U 23029AC  26162.86818896  .00000069  00000+0  15127-3 0  9992
2 55822  87.8945 290.8098 0001586  95.7196 264.4115 13.14502167158735
ONEWEB-0663             
1 55823U 23029AD  26162.85976902 -.00000062  00000+0 -18320-3 0  9998
2 55823  87.9193 275.5630 0001507 102.8880 257.2422 13.20868963160445
ONEWEB-0664             
1 55824U 23029AE  26162.81220401  .00000023  00000+0  24761-4 0  9993
2 55824  87.9179 275.5542 0001882  85.9053 274.2295 13.20770012160434
ONEWEB-0665             
1 55825U 23029AF  26162.90625130 -.00000176  00000+0 -50811-3 0  9997
2 55825  87.8953 290.7766 0001543  98.3566 261.7739 13.14502357158712
ONEWEB-0666             
1 55826U 23029AG  26162.80547351  .00000015  00000+0  57171-5 0  9993
2 55826  87.9180 275.5453 0002607 108.3739 251.7678 13.20770831160441
