OBJECT_NAME,OBJECT_ID,EPOCH,MEAN_MOTION,ECCENTRICITY,INCLINATION,RA_OF_ASC_NODE,ARG_OF_PERICENTER,MEAN_ANOMALY,EPHEMERIS_TYPE,CLASSIFICATION_TYPE,NORAD_CAT_ID,ELEMENT_SET_NO,REV_AT_EPOCH,BSTAR,MEAN_MOTION_DOT,MEAN_MOTION_DDOT
ONEWEB-0534,2023-029B,2026-06-11T20:25:19.978752,13.20771449,.00018418,87.9181,275.5333,99.6857,260.4485,0,U,55797,999,16044,-.18615201E-3,-.63E-6,0
ONEWEB-0556,2023-029C,2026-06-11T18:45:56.876256,13.20773315,.00017891,87.9179,275.5468,74.0430,286.0901,0,U,55798,999,16043,-.15050915E-3,-.48E-6,0
ONEWEB-0562,2023-029D,2026-06-11T18:26:32.352864,13.20770633,.00024435,87.9181,275.5303,81.6042,278.5369,0,U,55799,999,16043,-.96259388E-4,-.26E-6,0
ONEWEB-0563,2023-029E,2026-06-11T16:30:11.598336,13.20772143,.00017252,87.9181,275.5769,101.0442,259.0885,0,U,55800,999,16041,-.42856426E-4,-.4E-7,0
ONEWEB-0564,2023-029F,2026-06-11T18:09:35.056800,13.20770670,.00022164,87.9182,275.5364,91.8951,268.2436,0,U,55801,999,16043,-.16034142E-3,-.52E-6,0
ONEWEB-0638,2023-029G,2026-06-11T21:54:09.543744,13.14486937,.00014784,87.8947,290.8037,87.6973,272.4326,0,U,55802,999,15870,-.53087845E-2,-.1955E-4,0
ONEWEB-0639,2023-029H,2026-06-11T22:51:09.482976,13.19725166,.00010522,87.9164,306.0190,121.9852,238.1383,0,U,55803,999,15821,-.10598069E-3,-.29E-6,0
ONEWEB-0640,2023-029J,2026-06-11T20:18:13.069440,13.14502849,.00015036,87.8950,290.8080,79.6356,280.4943,0,U,55804,999,15871,-.59616005E-3,-.208E-5,0
ONEWEB-0641,2023-029K,2026-06-11T22:44:19.278240,13.19724642,.00017105,87.9172,306.0087,101.5552,258.5773,0,U,55805,999,15822,-.13070753E-3,-.39E-6,0
ONEWEB-0642,2023-029L,2026-06-11T22:37:30.377280,13.19724339,.00013482,87.9165,306.0219,123.4843,236.6418,0,U,55806,999,15821,-.19896155E-4,.5E-7,0
ONEWEB-0643,2023-029M,2026-06-11T19:34:50.730816,13.14502640,.00016943,87.8951,290.8010,121.6439,238.4857,0,U,55807,999,15868,.32470495E-3,.133E-5,0
ONEWEB-0644,2023-029N,2026-06-11T22:30:40.389408,13.19724024,.00016193,87.9163,306.0243,107.6356,252.4953,0,U,55808,999,15821,-.18425077E-3,-.61E-6,0
ONEWEB-0645,2023-029P,2026-06-11T23:02:30.861024,13.19723961,.00013799,87.9162,306.0170,94.7958,265.3332,0,U,55809,999,15821,.19259416E-4,.21E-6,0
ONEWEB-0646,2023-029Q,2026-06-11T21:38:22.643808,13.19724657,.00016698,87.9164,306.0288,105.9463,254.1854,0,U,55810,999,15819,.22861465E-4,.22E-6,0
ONEWEB-0648,2023-029R,2026-06-11T20:38:44.749824,13.14502939,.00009831,87.8961,290.7652,109.7650,250.3586,0,U,55811,999,15869,-.79994279E-3,-.284E-5,0
ONEWEB-0649,2023-029S,2026-06-11T22:14:45.186432,13.19724681,.00015687,87.9161,306.0213,98.1293,262.0018,0,U,55812,999,15823,-.83325931E-4,-.2E-6,0
ONEWEB-0650,2023-029T,2026-06-11T22:07:54.782112,13.19724546,.00014077,87.9165,306.0249,112.1751,247.9531,0,U,55813,999,15820,-.18294298E-3,-.6E-6,0
ONEWEB-0652,2023-029U,2026-06-11T22:00:57.571200,13.14504537,.0002051,87.8957,290.7613,99.3360,260.8002,0,U,55814,999,15867,-.60925742E-3,-.213E-5,0
ONEWEB-0653,2023-029V,2026-06-11T21:38:08.239200,13.14502514,.00018816,87.8962,290.7621,97.2026,262.9317,0,U,55815,999,15870,-.29602565E-3,-.97E-6,0
ONEWEB-0654,2023-029W,2026-06-11T19:41:40.859520,13.14503404,.00021668,87.8959,290.7745,93.4457,266.6921,0,U,55816,999,15871,.17591589E-3,.78E-6,0
ONEWEB-0656,2023-029X,2026-06-11T17:59:53.342016,13.20772935,.00023323,87.9196,275.5131,94.1897,265.9503,0,U,55817,999,16043,-.63083385E-4,-.13E-6,0
ONEWEB-0657,2023-029Y,2026-06-11T22:01:07.079520,13.19724436,.00024609,87.9165,306.0246,105.7898,254.3506,0,U,55818,999,15821,-.13527931E-3,-.41E-6,0
ONEWEB-0658,2023-029Z,2026-06-11T21:54:17.464032,13.19724445,.00015727,87.9172,306.0006,109.1804,250.9500,0,U,55819,999,15822,-.12534587E-3,-.37E-6,0
ONEWEB-0660,2023-029AA,2026-06-11T17:20:06.186912,13.14503280,.00015989,87.8968,290.7869,95.1101,265.0211,0,U,55820,999,15868,.61272613E-3,.24E-5,0
ONEWEB-0661,2023-029AB,2026-06-11T21:49:34.017600,13.14502077,.00016701,87.8952,290.7951,91.9549,268.1772,0,U,55821,999,15869,-.42324554E-3,-.144E-5,0
ONEWEB-0662,2023-029AC,2026-06-11T20:50:11.526144,13.14502167,.00015869,87.8945,290.8098,95.7196,264.4115,0,U,55822,999,15873,.15126786E-3,.69E-6,0
ONEWEB-0663,2023-029AD,2026-06-11T20:38:04.043328,13.20868963,.0001507,87.9193,275.5630,102.8880,257.2422,0,U,55823,999,16044,-.18319707E-3,-.62E-6,0
ONEWEB-0664,2023-029AE,2026-06-11T19:29:34.426464,13.20770012,.00018822,87.9179,275.5542,85.9053,274.2295,0,U,55824,999,16043,.24761098E-4,.23E-6,0
ONEWEB-0665,2023-029AF,2026-06-11T21:45:00.112320,13.14502357,.00015434,87.8953,290.7766,98.3566,261.7739,0,U,55825,999,15871,-.50810675E-3,-.176E-5,0
ONEWEB-0666,2023-029AG,2026-06-11T19:19:52.911264,13.20770831,.00026075,87.9180,275.5453,108.3739,251.7678,0,U,55826,999,16044,.571707E-5,.15E-6,0
